{
  "type": "FeatureCollection",
  "features": [
    {
      "type": "Feature",
      "properties": {
        "norad_id": 33822,
        "name": "COSMOS 2251 DEB",
        "group": "cosmos-2251-debris",
        "lat": -69.75221979918972,
        "lon": 161.24263237510857,
        "alt_km": 752.5959417603826,
        "timestamp": "2025-12-02T08:59:33.107392+00:00",
        "meta_object_name": "COSMOS 2251 DEB",
        "meta_object_id": "1993-036BP",
        "meta_epoch": "2025-12-02T03:09:17.362944",
        "meta_mean_motion": 14.12986397,
        "meta_eccentricity": 0.0154058,
        "meta_inclination": 74.0703,
        "meta_ra_of_asc_node": 212.4081,
        "meta_arg_of_pericenter": 261.1851,
        "meta_mean_anomaly": 224.0386,
        "meta_ephemeris_type": 0,
        "meta_classification_type": "U",
        "meta_norad_cat_id": 33822,
        "meta_element_set_no": 999,
        "meta_rev_at_epoch": 85904,
        "meta_bstar": 0.001451,
        "meta_mean_motion_dot": 3.003e-05,
        "meta_mean_motion_ddot": 0,
        "tle_line1": "1 33822U 93036BP  25336.13145096  .00003003  00000+0  14510-2 0  9995",
        "tle_line2": "2 33822  74.0703 212.4081 0154058 261.1851 224.0386 14.12986397859047"
      },
      "geometry": {
        "type": "Point",
        "coordinates": [
          161.24263237510857,
          -69.75221979918972
        ]
      }
    },
    {
      "type": "Feature",
      "properties": {
        "norad_id": 33823,
        "name": "COSMOS 2251 DEB",
        "group": "cosmos-2251-debris",
        "lat": -73.72255442777595,
        "lon": 71.78397799626893,
        "alt_km": 766.9951957570902,
        "timestamp": "2025-12-02T08:59:33.107405+00:00",
        "meta_object_name": "COSMOS 2251 DEB",
        "meta_object_id": "1993-036BQ",
        "meta_epoch": "2025-12-01T23:40:43.880736",
        "meta_mean_motion": 13.98907364,
        "meta_eccentricity": 0.0209246,
        "meta_inclination": 73.8087,
        "meta_ra_of_asc_node": 168.1753,
        "meta_arg_of_pericenter": 295.071,
        "meta_mean_anomaly": 180.7616,
        "meta_ephemeris_type": 0,
        "meta_classification_type": "U",
        "meta_norad_cat_id": 33823,
        "meta_element_set_no": 999,
        "meta_rev_at_epoch": 85459,
        "meta_bstar": 0.00082114,
        "meta_mean_motion_dot": 1.402e-05,
        "meta_mean_motion_ddot": 0,
        "tle_line1": "1 33823U 93036BQ  25335.98661899  .00001402  00000+0  82114-3 0  9999",
        "tle_line2": "2 33823  73.8087 168.1753 0209246 295.0710 180.7616 13.98907364854592"
      },
      "geometry": {
        "type": "Point",
        "coordinates": [
          71.78397799626893,
          -73.72255442777595
        ]
      }
    },
    {
      "type": "Feature",
      "properties": {
        "norad_id": 33825,
        "name": "COSMOS 2251 DEB",
        "group": "cosmos-2251-debris",
        "lat": 14.706668405130003,
        "lon": -136.37947681688604,
        "alt_km": 712.3165025327226,
        "timestamp": "2025-12-02T08:59:33.107416+00:00",
        "meta_object_name": "COSMOS 2251 DEB",
        "meta_object_id": "1993-036BS",
        "meta_epoch": "2025-12-02T03:32:43.986048",
        "meta_mean_motion": 14.69607577,
        "meta_eccentricity": 0.0084039,
        "meta_inclination": 73.9861,
        "meta_ra_of_asc_node": 48.3846,
        "meta_arg_of_pericenter": 18.1166,
        "meta_mean_anomaly": 25.6876,
        "meta_ephemeris_type": 0,
        "meta_classification_type": "U",
        "meta_norad_cat_id": 33825,
        "meta_element_set_no": 999,
        "meta_rev_at_epoch": 88724,
        "meta_bstar": 0.00091879,
        "meta_mean_motion_dot": 5.736e-05,
        "meta_mean_motion_ddot": 0,
        "tle_line1": "1 33825U 93036BS  25336.14773132  .00005736  00000+0  91879-3 0  9996",
        "tle_line2": "2 33825  73.9861  48.3846 0084039  18.1166  25.6876 14.69607577887242"
      },
      "geometry": {
        "type": "Point",
        "coordinates": [
          -136.37947681688604,
          14.706668405130003
        ]
      }
    },
    {
      "type": "Feature",
      "properties": {
        "norad_id": 33826,
        "name": "COSMOS 2251 DEB",
        "group": "cosmos-2251-debris",
        "lat": 5.614421528174988,
        "lon": 70.96962734373234,
        "alt_km": 743.5248899970684,
        "timestamp": "2025-12-02T08:59:33.107428+00:00",
        "meta_object_name": "COSMOS 2251 DEB",
        "meta_object_id": "1993-036BT",
        "meta_epoch": "2025-12-01T23:34:09.070752",
        "meta_mean_motion": 14.5153481,
        "meta_eccentricity": 0.0084485,
        "meta_inclination": 74.0649,
        "meta_ra_of_asc_node": 70.0978,
        "meta_arg_of_pericenter": 117.7749,
        "meta_mean_anomaly": 358.173,
        "meta_ephemeris_type": 0,
        "meta_classification_type": "U",
        "meta_norad_cat_id": 33826,
        "meta_element_set_no": 999,
        "meta_rev_at_epoch": 87613,
        "meta_bstar": 0.001887,
        "meta_mean_motion_dot": 7.888e-05,
        "meta_mean_motion_ddot": 0,
        "tle_line1": "1 33826U 93036BT  25335.98204943  .00007888  00000+0  18870-2 0  9996",
        "tle_line2": "2 33826  74.0649  70.0978 0084485 117.7749 358.1730 14.51534810876134"
      },
      "geometry": {
        "type": "Point",
        "coordinates": [
          70.96962734373234,
          5.614421528174988
        ]
      }
    },
    {
      "type": "Feature",
      "properties": {
        "norad_id": 33828,
        "name": "COSMOS 2251 DEB",
        "group": "cosmos-2251-debris",
        "lat": 2.9847484435947473,
        "lon": 76.50808689751914,
        "alt_km": 765.5590058852258,
        "timestamp": "2025-12-02T08:59:33.107438+00:00",
        "meta_object_name": "COSMOS 2251 DEB",
        "meta_object_id": "1993-036BV",
        "meta_epoch": "2025-12-02T03:44:19.034304",
        "meta_mean_motion": 14.44270773,
        "meta_eccentricity": 0.0029281,
        "meta_inclination": 74.0473,
        "meta_ra_of_asc_node": 257.7695,
        "meta_arg_of_pericenter": 332.3842,
        "meta_mean_anomaly": 146.7889,
        "meta_ephemeris_type": 0,
        "meta_classification_type": "U",
        "meta_norad_cat_id": 33828,
        "meta_element_set_no": 999,
        "meta_rev_at_epoch": 88160,
        "meta_bstar": 0.00063989,
        "meta_mean_motion_dot": 2.185e-05,
        "meta_mean_motion_ddot": 0,
        "tle_line1": "1 33828U 93036BV  25336.15577586  .00002185  00000+0  63989-3 0  9991",
        "tle_line2": "2 33828  74.0473 257.7695 0029281 332.3842 146.7889 14.44270773881604"
      },
      "geometry": {
        "type": "Point",
        "coordinates": [
          76.50808689751914,
          2.9847484435947473
        ]
      }
    },
    {
      "type": "Feature",
      "properties": {
        "norad_id": 33830,
        "name": "COSMOS 2251 DEB",
        "group": "cosmos-2251-debris",
        "lat": -71.06621119747194,
        "lon": -165.8964398058421,
        "alt_km": 648.0555971887816,
        "timestamp": "2025-12-02T08:59:33.107449+00:00",
        "meta_object_name": "COSMOS 2251 DEB",
        "meta_object_id": "1993-036BX",
        "meta_epoch": "2025-12-02T05:09:04.004352",
        "meta_mean_motion": 14.76665962,
        "meta_eccentricity": 0.0042146,
        "meta_inclination": 74.033,
        "meta_ra_of_asc_node": 250.9964,
        "meta_arg_of_pericenter": 13.3553,
        "meta_mean_anomaly": 136.9259,
        "meta_ephemeris_type": 0,
        "meta_classification_type": "U",
        "meta_norad_cat_id": 33830,
        "meta_element_set_no": 999,
        "meta_rev_at_epoch": 89316,
        "meta_bstar": 0.0012426,
        "meta_mean_motion_dot": 8.796e-05,
        "meta_mean_motion_ddot": 0,
        "tle_line1": "1 33830U 93036BX  25336.21462968  .00008796  00000+0  12426-2 0  9991",
        "tle_line2": "2 33830  74.0330 250.9964 0042146  13.3553 136.9259 14.76665962893162"
      },
      "geometry": {
        "type": "Point",
        "coordinates": [
          -165.8964398058421,
          -71.06621119747194
        ]
      }
    },
    {
      "type": "Feature",
      "properties": {
        "norad_id": 33832,
        "name": "COSMOS 2251 DEB",
        "group": "cosmos-2251-debris",
        "lat": -35.016927021054215,
        "lon": 61.30257442084814,
        "alt_km": 685.1134552364329,
        "timestamp": "2025-12-02T08:59:33.107460+00:00",
        "meta_object_name": "COSMOS 2251 DEB",
        "meta_object_id": "1993-036BZ",
        "meta_epoch": "2025-12-02T03:45:36.205056",
        "meta_mean_motion": 14.60422984,
        "meta_eccentricity": 0.0025736,
        "meta_inclination": 74.055,
        "meta_ra_of_asc_node": 230.163,
        "meta_arg_of_pericenter": 263.3167,
        "meta_mean_anomaly": 247.6659,
        "meta_ephemeris_type": 0,
        "meta_classification_type": "U",
        "meta_norad_cat_id": 33832,
        "meta_element_set_no": 999,
        "meta_rev_at_epoch": 88270,
        "meta_bstar": 0.0015895,
        "meta_mean_motion_dot": 7.713e-05,
        "meta_mean_motion_ddot": 0,
        "tle_line1": "1 33832U 93036BZ  25336.15666904  .00007713  00000+0  15895-2 0  9993",
        "tle_line2": "2 33832  74.0550 230.1630 0025736 263.3167 247.6659 14.60422984882702"
      },
      "geometry": {
        "type": "Point",
        "coordinates": [
          61.30257442084814,
          -35.016927021054215
        ]
      }
    }
  ]
}